[
  {
    "OBJECT_NAME": "RADFXSAT (FOX-1B)",
    "OBJECT_ID": "2017-073E",
    "EPOCH": "2025-06-07T14:21:24.450624",
    "MEAN_MOTION": 15.04675103,
    "ECCENTRICITY": 0.0172881,
    "INCLINATION": 97.5247,
    "RA_OF_ASC_NODE": 29.4215,
    "ARG_OF_PERICENTER": 172.9989,
    "MEAN_ANOMALY": 187.3715,
    "EPHEMERIS_TYPE": 0,
    "CLASSIFICATION_TYPE": "U",
    "NORAD_CAT_ID": 43017,
    "ELEMENT_SET_NO": 999,
    "REV_AT_EPOCH": 40891,
    "BSTAR": 0.00038293,
    "MEAN_MOTION_DOT": 7.46e-05,
    "MEAN_MOTION_DDOT": 0
  },
  {
    "OBJECT_NAME": "DIWATA-2B",
    "OBJECT_ID": "2018-084H",
    "EPOCH": "2025-06-07T20:27:18.347616",
    "MEAN_MOTION": 14.98337248,
    "ECCENTRICITY": 0.0006739,
    "INCLINATION": 98.1047,
    "RA_OF_ASC_NODE": 334.9109,
    "ARG_OF_PERICENTER": 301.5455,
    "MEAN_ANOMALY": 58.5107,
    "EPHEMERIS_TYPE": 0,
    "CLASSIFICATION_TYPE": "U",
    "NORAD_CAT_ID": 43678,
    "ELEMENT_SET_NO": 999,
    "REV_AT_EPOCH": 36012,
    "BSTAR": 0.00014455,
    "MEAN_MOTION_DOT": 1.658e-05,
    "MEAN_MOTION_DDOT": 0
  },
  {
    "OBJECT_NAME": "ES'HAIL 2",
    "OBJECT_ID": "2018-090A",
    "EPOCH": "2025-06-07T20:20:38.666400",
    "MEAN_MOTION": 1.00273444,
    "ECCENTRICITY": 0.0002338,
    "INCLINATION": 0.0178,
    "RA_OF_ASC_NODE": 54.0815,
    "ARG_OF_PERICENTER": 55.7826,
    "MEAN_ANOMALY": 117.5645,
    "EPHEMERIS_TYPE": 0,
    "CLASSIFICATION_TYPE": "U",
    "NORAD_CAT_ID": 43700,
    "ELEMENT_SET_NO": 999,
    "REV_AT_EPOCH": 2416,
    "BSTAR": 0,
    "MEAN_MOTION_DOT": 1.62e-06,
    "MEAN_MOTION_DDOT": 0
  },
  {
    "OBJECT_NAME": "FOX-1CLIFF (AO-95)",
    "OBJECT_ID": "2018-099N",
    "EPOCH": "2025-06-07T17:40:01.384896",
    "MEAN_MOTION": 15.17200704,
    "ECCENTRICITY": 0.0010039,
    "INCLINATION": 97.492,
    "RA_OF_ASC_NODE": 216.8419,
    "ARG_OF_PERICENTER": 209.9425,
    "MEAN_ANOMALY": 150.1235,
    "EPHEMERIS_TYPE": 0,
    "CLASSIFICATION_TYPE": "U",
    "NORAD_CAT_ID": 43770,
    "ELEMENT_SET_NO": 999,
    "REV_AT_EPOCH": 35627,
    "BSTAR": 0.00034725,
    "MEAN_MOTION_DOT": 6.843e-05,
    "MEAN_MOTION_DDOT": 0
  },
  {
    "OBJECT_NAME": "ITASAT",
    "OBJECT_ID": "2018-099AE",
    "EPOCH": "2025-06-07T13:28:44.721408",
    "MEAN_MOTION": 15.12908063,
    "ECCENTRICITY": 0.0013772,
    "INCLINATION": 97.4567,
    "RA_OF_ASC_NODE": 212.9531,
    "ARG_OF_PERICENTER": 207.1957,
    "MEAN_ANOMALY": 152.8554,
    "EPHEMERIS_TYPE": 0,
    "CLASSIFICATION_TYPE": "U",
    "NORAD_CAT_ID": 43786,
    "ELEMENT_SET_NO": 999,
    "REV_AT_EPOCH": 35615,
    "BSTAR": 0.00032663,
    "MEAN_MOTION_DOT": 5.7e-05,
    "MEAN_MOTION_DDOT": 0
  },
  {
    "OBJECT_NAME": "JY1SAT (JO-97)",
    "OBJECT_ID": "2018-099AX",
    "EPOCH": "2025-06-07T03:36:00.154656",
    "MEAN_MOTION": 15.20781501,
    "ECCENTRICITY": 0.0008762,
    "INCLINATION": 97.4666,
    "RA_OF_ASC_NODE": 217.2476,
    "ARG_OF_PERICENTER": 145.3094,
    "MEAN_ANOMALY": 214.8714,
    "EPHEMERIS_TYPE": 0,
    "CLASSIFICATION_TYPE": "U",
    "NORAD_CAT_ID": 43803,
    "ELEMENT_SET_NO": 999,
    "REV_AT_EPOCH": 35640,
    "BSTAR": 0.00039445,
    "MEAN_MOTION_DOT": 8.634e-05,
    "MEAN_MOTION_DDOT": 0
  },
  {
    "OBJECT_NAME": "UWE-4",
    "OBJECT_ID": "2018-111E",
    "EPOCH": "2025-06-07T16:53:57.761664",
    "MEAN_MOTION": 15.25855864,
    "ECCENTRICITY": 0.0010838,
    "INCLINATION": 97.591,
    "RA_OF_ASC_NODE": 71.5473,
    "ARG_OF_PERICENTER": 208.5332,
    "MEAN_ANOMALY": 151.5314,
    "EPHEMERIS_TYPE": 0,
    "CLASSIFICATION_TYPE": "U",
    "NORAD_CAT_ID": 43880,
    "ELEMENT_SET_NO": 999,
    "REV_AT_EPOCH": 35134,
    "BSTAR": 0.00048199,
    "MEAN_MOTION_DOT": 0.00012293,
    "MEAN_MOTION_DDOT": 0
  },
  {
    "OBJECT_NAME": "DUCHIFAT-3",
    "OBJECT_ID": "2019-089C",
    "EPOCH": "2025-06-07T21:09:06.870528",
    "MEAN_MOTION": 15.46425668,
    "ECCENTRICITY": 0.0005115,
    "INCLINATION": 36.9445,
    "RA_OF_ASC_NODE": 5.9958,
    "ARG_OF_PERICENTER": 302.755,
    "MEAN_ANOMALY": 57.2714,
    "EPHEMERIS_TYPE": 0,
    "CLASSIFICATION_TYPE": "U",
    "NORAD_CAT_ID": 44854,
    "ELEMENT_SET_NO": 999,
    "REV_AT_EPOCH": 30268,
    "BSTAR": 0.00073396,
    "MEAN_MOTION_DOT": 0.00037451,
    "MEAN_MOTION_DDOT": 0
  },
  {
    "OBJECT_NAME": "TIANYAN 01",
    "OBJECT_ID": "2019-093C",
    "EPOCH": "2025-06-07T21:01:30.441792",
    "MEAN_MOTION": 14.8559852,
    "ECCENTRICITY": 0.0012614,
    "INCLINATION": 97.7924,
    "RA_OF_ASC_NODE": 234.5613,
    "ARG_OF_PERICENTER": 233.4824,
    "MEAN_ANOMALY": 126.523,
    "EPHEMERIS_TYPE": 0,
    "CLASSIFICATION_TYPE": "U",
    "NORAD_CAT_ID": 44881,
    "ELEMENT_SET_NO": 999,
    "REV_AT_EPOCH": 29582,
    "BSTAR": 9.5063e-05,
    "MEAN_MOTION_DOT": 7.7e-06,
    "MEAN_MOTION_DDOT": 0
  },
  {
    "OBJECT_NAME": "RS-44 & BREEZE-KM R/B",
    "OBJECT_ID": "2019-096E",
    "EPOCH": "2025-06-07T16:15:37.373760",
    "MEAN_MOTION": 12.79740825,
    "ECCENTRICITY": 0.0216392,
    "INCLINATION": 82.5219,
    "RA_OF_ASC_NODE": 228.5419,
    "ARG_OF_PERICENTER": 300.187,
    "MEAN_ANOMALY": 57.7953,
    "EPHEMERIS_TYPE": 0,
    "CLASSIFICATION_TYPE": "U",
    "NORAD_CAT_ID": 44909,
    "ELEMENT_SET_NO": 999,
    "REV_AT_EPOCH": 25449,
    "BSTAR": 1.795e-05,
    "MEAN_MOTION_DOT": 1.4e-07,
    "MEAN_MOTION_DDOT": 0
  },
  {
    "OBJECT_NAME": "SALSAT",
    "OBJECT_ID": "2020-068K",
    "EPOCH": "2025-06-07T20:12:03.423456",
    "MEAN_MOTION": 15.22719881,
    "ECCENTRICITY": 0.0011895,
    "INCLINATION": 97.8596,
    "RA_OF_ASC_NODE": 136.7896,
    "ARG_OF_PERICENTER": 159.9405,
    "MEAN_ANOMALY": 200.23,
    "EPHEMERIS_TYPE": 0,
    "CLASSIFICATION_TYPE": "U",
    "NORAD_CAT_ID": 46495,
    "ELEMENT_SET_NO": 999,
    "REV_AT_EPOCH": 25826,
    "BSTAR": 0.00023544,
    "MEAN_MOTION_DOT": 5.423e-05,
    "MEAN_MOTION_DDOT": 0
  },
  {
    "OBJECT_NAME": "LEDSAT",
    "OBJECT_ID": "2021-073D",
    "EPOCH": "2025-06-06T17:47:58.849440",
    "MEAN_MOTION": 15.60402453,
    "ECCENTRICITY": 0.0010033,
    "INCLINATION": 97.389,
    "RA_OF_ASC_NODE": 239.1608,
    "ARG_OF_PERICENTER": 95.896,
    "MEAN_ANOMALY": 264.344,
    "EPHEMERIS_TYPE": 0,
    "CLASSIFICATION_TYPE": "U",
    "NORAD_CAT_ID": 49069,
    "ELEMENT_SET_NO": 999,
    "REV_AT_EPOCH": 21099,
    "BSTAR": 0.00063325,
    "MEAN_MOTION_DOT": 0.00052192,
    "MEAN_MOTION_DDOT": 0
  },
  {
    "OBJECT_NAME": "XW-3 (CAS-9)",
    "OBJECT_ID": "2021-131B",
    "EPOCH": "2025-06-07T21:15:38.483712",
    "MEAN_MOTION": 14.40813048,
    "ECCENTRICITY": 0.000518,
    "INCLINATION": 98.5101,
    "RA_OF_ASC_NODE": 248.2469,
    "ARG_OF_PERICENTER": 132.0616,
    "MEAN_ANOMALY": 228.1014,
    "EPHEMERIS_TYPE": 0,
    "CLASSIFICATION_TYPE": "U",
    "NORAD_CAT_ID": 50466,
    "ELEMENT_SET_NO": 999,
    "REV_AT_EPOCH": 18120,
    "BSTAR": 0.00015601,
    "MEAN_MOTION_DOT": 4.55e-06,
    "MEAN_MOTION_DDOT": 0
  },
  {
    "OBJECT_NAME": "GREENCUBE (IO-117)",
    "OBJECT_ID": "2022-080E",
    "EPOCH": "2025-06-07T02:24:52.198560",
    "MEAN_MOTION": 6.42583878,
    "ECCENTRICITY": 0.0008683,
    "INCLINATION": 70.1414,
    "RA_OF_ASC_NODE": 68.682,
    "ARG_OF_PERICENTER": 9.8023,
    "MEAN_ANOMALY": 350.2805,
    "EPHEMERIS_TYPE": 0,
    "CLASSIFICATION_TYPE": "U",
    "NORAD_CAT_ID": 53109,
    "ELEMENT_SET_NO": 999,
    "REV_AT_EPOCH": 6796,
    "BSTAR": 0,
    "MEAN_MOTION_DOT": -3e-08,
    "MEAN_MOTION_DDOT": 0
  }
]