RADFXSAT (FOX-1B)       
1 43017U 17073E   25158.59819966  .00007460  00000+0  38293-3 0  9991
2 43017  97.5247  29.4215 0172881 172.9989 187.3715 15.04675103408912
DIWATA-2B               
1 43678U 18084H   25158.85229569  .00001658  00000+0  14455-3 0  9997
2 43678  98.1047 334.9109 0006739 301.5455  58.5107 14.98337248360123
ES'HAIL 2               
1 43700U 18090A   25158.84766975  .00000162  00000+0  00000+0 0  9992
2 43700   0.0178  54.0815 0002338  55.7826 117.5645  1.00273444 24161
FOX-1CLIFF (AO-95)      
1 43770U 18099N   25158.73612714  .00006843  00000+0  34725-3 0  9994
2 43770  97.4920 216.8419 0010039 209.9425 150.1235 15.17200704356276
ITASAT                  
1 43786U 18099AE  25158.56162872  .00005700  00000+0  32663-3 0  9997
2 43786  97.4567 212.9531 0013772 207.1957 152.8554 15.12908063356157
JY1SAT (JO-97)          
1 43803U 18099AX  25158.15000179  .00008634  00000+0  39445-3 0  9997
2 43803  97.4666 217.2476 0008762 145.3094 214.8714 15.20781501356401
UWE-4                   
1 43880U 18111E   25158.70414076  .00012293  00000+0  48199-3 0  9995
2 43880  97.5910  71.5473 0010838 208.5332 151.5314 15.25855864351341
DUCHIFAT-3              
1 44854U 19089C   25158.88132952  .00037451  00000+0  73396-3 0  9991
2 44854  36.9445   5.9958 0005115 302.7550  57.2714 15.46425668302680
TIANYAN 01              
1 44881U 19093C   25158.87604678  .00000770  00000+0  95063-4 0  9994
2 44881  97.7924 234.5613 0012614 233.4824 126.5230 14.85598520295821
RS-44 & BREEZE-KM R/B   
1 44909U 19096E   25158.67751590  .00000014  00000+0  17950-4 0  9992
2 44909  82.5219 228.5419 0216392 300.1870  57.7953 12.79740825254493
SALSAT                  
1 46495U 20068K   25158.84170629  .00005423  00000+0  23544-3 0  9996
2 46495  97.8596 136.7896 0011895 159.9405 200.2300 15.22719881258265
LEDSAT                  
1 49069U 21073D   25157.74165335  .00052192  00000+0  63325-3 0  9995
2 49069  97.3890 239.1608 0010033  95.8960 264.3440 15.60402453210993
XW-3 (CAS-9)            
1 50466U 21131B   25158.88586208  .00000455  00000+0  15601-3 0  9994
2 50466  98.5101 248.2469 0005180 132.0616 228.1014 14.40813048181208
GREENCUBE (IO-117)      
1 53109U 22080E   25158.10060415 -.00000003  00000+0  00000+0 0  9990
2 53109  70.1414  68.6820 0008683   9.8023 350.2805  6.42583878 67966
